[
    {
        "Altitude(m)": 611967.1471416417,
        "Argument of Periapsis(deg)": 0.0,
        "Eccentricity": 0.0,
        "Inclination(deg)": 60.0,
        "Latitude(deg)": 59.14006521109551,
        "Longitude(deg)": -53.9080179747631,
        "Mean Anomaly(deg)": -261.8182,
        "RAAN(deg)": 300.0,
        "Satellite Name": "Test1 1326",
        "Satellite Number": 1326,
        "Semi-Major Axis(m)": 6980739.136638005,
        "Time(s)": 0
    },
    {
        "Altitude(m)": 611934.3472137821,
        "Argument of Periapsis(deg)": 0.00010418945913296404,
        "Eccentricity": 0.0,
        "Inclination(deg)": 60.0,
        "Latitude(deg)": 58.986428300525134,
        "Longitude(deg)": -52.7847749020153,
        "Mean Anomaly(deg)": -261.1980938545382,
        "RAAN(deg)": 299.99957995086027,
        "Satellite Name": "Test1 1326",
        "Satellite Number": 1326,
        "Semi-Major Axis(m)": 6980739.136638005,
        "Time(s)": 10
    },
    {
        "Altitude(m)": 611899.2426530337,
        "Argument of Periapsis(deg)": 0.0002083789182659281,
        "Eccentricity": 0.0,
        "Inclination(deg)": 60.0,
        "Latitude(deg)": 58.82241330726244,
        "Longitude(deg)": -51.67219702627766,
        "Mean Anomaly(deg)": -260.57798770907635,
        "RAAN(deg)": 299.99915990172053,
        "Satellite Name": "Test1 1326",
        "Satellite Number": 1326,
        "Semi-Major Axis(m)": 6980739.136638005,
        "Time(s)": 20
    },
    {
        "Altitude(m)": 611861.8536936641,
        "Argument of Periapsis(deg)": 0.00031256837739889213,
        "Eccentricity": 0.0,
        "Inclination(deg)": 60.0,
        "Latitude(deg)": 58.64818327894317,
        "Longitude(deg)": -50.570796140264896,
        "Mean Anomaly(deg)": -259.9578815636145,
        "RAAN(deg)": 299.9987398525808,
        "Satellite Name": "Test1 1326",
        "Satellite Number": 1326,
        "Semi-Major Axis(m)": 6980739.136638005,
        "Time(s)": 30
    },
    {
        "Altitude(m)": 611822.2018957693,
        "Argument of Periapsis(deg)": 0.0004167578365318562,
        "Eccentricity": 0.0,
        "Inclination(deg)": 60.0,
        "Latitude(deg)": 58.463907712174745,
        "Longitude(deg)": -49.48104328858194,
        "Mean Anomaly(deg)": -259.3377754181527,
        "RAAN(deg)": 299.99831980344106,
        "Satellite Name": "Test1 1326",
        "Satellite Number": 1326,
        "Semi-Major Axis(m)": 6980739.136638005,
        "Time(s)": 40
    },
    {
        "Altitude(m)": 611780.3101350664,
        "Argument of Periapsis(deg)": 0.0005209472956648203,
        "Eccentricity": 0.0,
        "Inclination(deg)": 60.0,
        "Latitude(deg)": 58.26976183602572,
        "Longitude(deg)": -48.40336954400761,
        "Mean Anomaly(deg)": -258.71766927269084,
        "RAAN(deg)": 299.9978997543013,
        "Satellite Name": "Test1 1326",
        "Satellite Number": 1326,
        "Semi-Major Axis(m)": 6980739.136638005,
        "Time(s)": 50
    },
    {
        "Altitude(m)": 611736.202592091,
        "Argument of Periapsis(deg)": 0.0006251367547977843,
        "Eccentricity": 0.0,
        "Inclination(deg)": 60.0,
        "Latitude(deg)": 58.06592590197386,
        "Longitude(deg)": -47.33816556090888,
        "Mean Anomaly(deg)": -258.097563127229,
        "RAAN(deg)": 299.99747970516154,
        "Satellite Name": "Test1 1326",
        "Satellite Number": 1326,
        "Semi-Major Axis(m)": 6980739.136638005,
        "Time(s)": 60
    },
    {
        "Altitude(m)": 611689.9047407424,
        "Argument of Periapsis(deg)": 0.0007293262139307483,
        "Eccentricity": 0.0,
        "Inclination(deg)": 60.0,
        "Latitude(deg)": 57.8525844856927,
        "Longitude(deg)": -46.285781398416674,
        "Mean Anomaly(deg)": -257.4774569817672,
        "RAAN(deg)": 299.99705965602186,
        "Satellite Name": "Test1 1326",
        "Satellite Number": 1326,
        "Semi-Major Axis(m)": 6980739.136638005,
        "Time(s)": 70
    },
    {
        "Altitude(m)": 611641.4433362179,
        "Argument of Periapsis(deg)": 0.0008335156730637124,
        "Eccentricity": 0.0,
        "Inclination(deg)": 60.0,
        "Latitude(deg)": 57.629925805517814,
        "Longitude(deg)": -45.24652810385467,
        "Mean Anomaly(deg)": -256.85735083630533,
        "RAAN(deg)": 299.99663960688207,
        "Satellite Name": "Test1 1326",
        "Satellite Number": 1326,
        "Semi-Major Axis(m)": 6980739.136638005,
        "Time(s)": 80
    },
    {
        "Altitude(m)": 611590.8464023453,
        "Argument of Periapsis(deg)": 0.0009377051321966765,
        "Eccentricity": 0.0,
        "Inclination(deg)": 60.0,
        "Latitude(deg)": 57.39814106186661,
        "Longitude(deg)": -44.220678006749196,
        "Mean Anomaly(deg)": -256.23724469084357,
        "RAAN(deg)": 299.99621955774234,
        "Satellite Name": "Test1 1326",
        "Satellite Number": 1326,
        "Semi-Major Axis(m)": 6980739.136638005,
        "Time(s)": 90
    },
    {
        "Altitude(m)": 611538.143218307,
        "Argument of Periapsis(deg)": 0.0010418945913296407,
        "Eccentricity": 0.0,
        "Inclination(deg)": 60.0,
        "Latitude(deg)": 57.15742380129633,
        "Longitude(deg)": -43.20846521140337,
        "Mean Anomaly(deg)": -255.61713854538175,
        "RAAN(deg)": 299.9957995086026,
        "Satellite Name": "Test1 1326",
        "Satellite Number": 1326,
        "Semi-Major Axis(m)": 6980739.136638005,
        "Time(s)": 100
    },
    {
        "Altitude(m)": 611483.364304725,
        "Argument of Periapsis(deg)": 0.0011460840504626045,
        "Eccentricity": 0.0,
        "Inclination(deg)": 60.0,
        "Latitude(deg)": 56.9079693082992,
        "Longitude(deg)": -42.21008777560414,
        "Mean Anomaly(deg)": -254.99703239991987,
        "RAAN(deg)": 299.99537945946287,
        "Satellite Name": "Test1 1326",
        "Satellite Number": 1326,
        "Semi-Major Axis(m)": 6980739.136638005,
        "Time(s)": 110
    },
    {
        "Altitude(m)": 611426.541409212,
        "Argument of Periapsis(deg)": 0.0012502735095955685,
        "Eccentricity": 0.0,
        "Inclination(deg)": 60.0,
        "Latitude(deg)": 56.64997402736179,
        "Longitude(deg)": -41.2257085244875,
        "Mean Anomaly(deg)": -254.37692625445808,
        "RAAN(deg)": 299.99495941032313,
        "Satellite Name": "Test1 1326",
        "Satellite Number": 1326,
        "Semi-Major Axis(m)": 6980739.136638005,
        "Time(s)": 120
    },
    {
        "Altitude(m)": 611367.7074912793,
        "Argument of Periapsis(deg)": 0.0013544629687285324,
        "Eccentricity": 0.0,
        "Inclination(deg)": 60.0,
        "Latitude(deg)": 56.38363501725545,
        "Longitude(deg)": -40.25545598770077,
        "Mean Anomaly(deg)": -253.7568201089962,
        "RAAN(deg)": 299.99453936118334,
        "Satellite Name": "Test1 1326",
        "Satellite Number": 1326,
        "Semi-Major Axis(m)": 6980739.136638005,
        "Time(s)": 130
    },
    {
        "Altitude(m)": 611306.8967066642,
        "Argument of Periapsis(deg)": 0.0014586524278614966,
        "Eccentricity": 0.0,
        "Inclination(deg)": 60.0,
        "Latitude(deg)": 56.10914943899912,
        "Longitude(deg)": -39.29942694887166,
        "Mean Anomaly(deg)": -253.13671396353436,
        "RAAN(deg)": 299.9941193120436,
        "Satellite Name": "Test1 1326",
        "Satellite Number": 1326,
        "Semi-Major Axis(m)": 6980739.136638005,
        "Time(s)": 140
    },
    {
        "Altitude(m)": 611244.1443911131,
        "Argument of Periapsis(deg)": 0.0015628418869944607,
        "Eccentricity": 0.0,
        "Inclination(deg)": 60.0,
        "Latitude(deg)": 55.82671407844868,
        "Longitude(deg)": -38.35768755894933,
        "Mean Anomaly(deg)": -252.51660781807257,
        "RAAN(deg)": 299.99369926290393,
        "Satellite Name": "Test1 1326",
        "Satellite Number": 1326,
        "Semi-Major Axis(m)": 6980739.136638005,
        "Time(s)": 150
    },
    {
        "Altitude(m)": 611179.4870435592,
        "Argument of Periapsis(deg)": 0.0016670313461274247,
        "Eccentricity": 0.0,
        "Inclination(deg)": 60.0,
        "Latitude(deg)": 55.53652490401192,
        "Longitude(deg)": -37.43027450500175,
        "Mean Anomaly(deg)": -251.89650167261073,
        "RAAN(deg)": 299.99327921376414,
        "Satellite Name": "Test1 1326",
        "Satellite Number": 1326,
        "Semi-Major Axis(m)": 6980739.136638005,
        "Time(s)": 160
    },
    {
        "Altitude(m)": 611112.9623087227,
        "Argument of Periapsis(deg)": 0.0017712208052603888,
        "Eccentricity": 0.0,
        "Inclination(deg)": 60.0,
        "Latitude(deg)": 55.23877665958034,
        "Longitude(deg)": -36.51719772764248,
        "Mean Anomaly(deg)": -251.27639552714888,
        "RAAN(deg)": 299.9928591646244,
        "Satellite Name": "Test1 1326",
        "Satellite Number": 1326,
        "Semi-Major Axis(m)": 6980739.136638005,
        "Time(s)": 170
    },
    {
        "Altitude(m)": 611044.6089592021,
        "Argument of Periapsis(deg)": 0.001875410264393353,
        "Eccentricity": 0.0,
        "Inclination(deg)": 60.0,
        "Latitude(deg)": 54.93366249241323,
        "Longitude(deg)": -35.61844164335316,
        "Mean Anomaly(deg)": -250.65628938168706,
        "RAAN(deg)": 299.9924391154847,
        "Satellite Name": "Test1 1326",
        "Satellite Number": 1326,
        "Semi-Major Axis(m)": 6980739.136638005,
        "Time(s)": 180
    },
    {
        "Altitude(m)": 610974.4668769656,
        "Argument of Periapsis(deg)": 0.0019795997235263173,
        "Eccentricity": 0.0,
        "Inclination(deg)": 60.0,
        "Latitude(deg)": 54.62137361538738,
        "Longitude(deg)": -34.73396636835687,
        "Mean Anomaly(deg)": -250.0361832362252,
        "RAAN(deg)": 299.99201906634494,
        "Satellite Name": "Test1 1326",
        "Satellite Number": 1326,
        "Semi-Major Axis(m)": 6980739.136638005,
        "Time(s)": 190
    }
]